PANDORA
1 67395U 80229J   26072.86457176  .00000000  00000-0  37770-3 0    02
2 67395  97.8043  73.0188 0007101  87.2814 178.2676 14.87896440    07
